{"type": "FeatureCollection", "features": [ {"type": "Feature", "properties": {"norad_id": 39122, "name": "EUTELSAT 117 WEST A", "group": "eutelsat", "lat": -0.01000967266911533, "lon": -43.94488269477047, "alt_km": 35778.13559547213, "timestamp": "2025-12-22T22:44:20.622345+00:00", "meta": {"OBJECT_NAME": "EUTELSAT 117 WEST A", "OBJECT_ID": "2013-012A", "EPOCH": "2025-12-22T10:53:51.150336", "MEAN_MOTION": 1.00270741, "ECCENTRICITY": 0.00026277, "INCLINATION": 0.0258, "RA_OF_ASC_NODE": 308.677, "ARG_OF_PERICENTER": 324.9754, "MEAN_ANOMALY": 224.282, "EPHEMERIS_TYPE": 0, "CLASSIFICATION_TYPE": "U", "NORAD_CAT_ID": 39122, "ELEMENT_SET_NO": 999, "REV_AT_EPOCH": 4666, "BSTAR": 0, "MEAN_MOTION_DOT": 9e-08, "MEAN_MOTION_DDOT": 0}, "tle": {"line1": "1 39122U 13012A   25356.45406424  .00000009  00000+0  00000+0 0  9991", "line2": "2 39122   0.0258 308.6770 0002627 324.9754 224.2820  1.00270741 46660"}}, "geometry": {"type": "Point", "coordinates": [-43.94488269477047, -0.01000967266911533]}}, {"type": "Feature", "properties": {"norad_id": 39163, "name": "EUTELSAT 7B", "group": "eutelsat", "lat": 0.08755731155353695, "lon": 79.86130271454803, "alt_km": 35794.90439810862, "timestamp": "2025-12-22T22:44:20.622358+00:00", "meta": {"OBJECT_NAME": "EUTELSAT 7B", "OBJECT_ID": "2013-022A", "EPOCH": "2025-12-22T08:03:44.941248", "MEAN_MOTION": 1.00271186, "ECCENTRICITY": 0.00044202, "INCLINATION": 0.0652, "RA_OF_ASC_NODE": 3.5391, "ARG_OF_PERICENTER": 318.6829, "MEAN_ANOMALY": 256.8512, "EPHEMERIS_TYPE": 0, "CLASSIFICATION_TYPE": "U", "NORAD_CAT_ID": 39163, "ELEMENT_SET_NO": 999, "REV_AT_EPOCH": 4617, "BSTAR": 0, "MEAN_MOTION_DOT": 7e-07, "MEAN_MOTION_DDOT": 0}, "tle": {"line1": "1 39163U 13022A   25356.33593682  .00000070  00000+0  00000+0 0  9995", "line2": "2 39163   0.0652   3.5391 0004420 318.6829 256.8512  1.00271186 46178"}}, "geometry": {"type": "Point", "coordinates": [79.86130271454803, 0.08755731155353695]}}, {"type": "Feature", "properties": {"norad_id": 39612, "name": "EXPRESS-AT1", "group": "eutelsat", "lat": 0.03295193283158776, "lon": 128.81870588489514, "alt_km": 35783.1660075814, "timestamp": "2025-12-22T22:44:20.622370+00:00", "meta": {"OBJECT_NAME": "EXPRESS-AT1", "OBJECT_ID": "2014-010A", "EPOCH": "2025-12-22T10:00:26.265888", "MEAN_MOTION": 1.00271252, "ECCENTRICITY": 7.176e-05, "INCLINATION": 0.023, "RA_OF_ASC_NODE": 347.1334, "ARG_OF_PERICENTER": 146.8279, "MEAN_ANOMALY": 163.3666, "EPHEMERIS_TYPE": 0, "CLASSIFICATION_TYPE": "U", "NORAD_CAT_ID": 39612, "ELEMENT_SET_NO": 999, "REV_AT_EPOCH": 4304, "BSTAR": 0, "MEAN_MOTION_DOT": 0, "MEAN_MOTION_DDOT": 0}, "tle": {"line1": "1 39612U 14010A   25356.41697067  .00000000  00000+0  00000+0 0  9996", "line2": "2 39612   0.0230 347.1334 0000717 146.8279 163.3666  1.00271252 43047"}}, "geometry": {"type": "Point", "coordinates": [128.81870588489514, 0.03295193283158776]}}, {"type": "Feature", "properties": {"norad_id": 39613, "name": "EXPRESS-AT2", "group": "eutelsat", "lat": -0.0208828773437866, "lon": -147.33665562794064, "alt_km": 35783.34001649577, "timestamp": "2025-12-22T22:44:20.622383+00:00", "meta": {"OBJECT_NAME": "EXPRESS-AT2", "OBJECT_ID": "2014-010B", "EPOCH": "2025-12-22T14:26:38.728896", "MEAN_MOTION": 1.00273838, "ECCENTRICITY": 0.00014474, "INCLINATION": 0.0173, "RA_OF_ASC_NODE": 293.9079, "ARG_OF_PERICENTER": 347.7112, "MEAN_ANOMALY": 166.2991, "EPHEMERIS_TYPE": 0, "CLASSIFICATION_TYPE": "U", "NORAD_CAT_ID": 39613, "ELEMENT_SET_NO": 999, "REV_AT_EPOCH": 4273, "BSTAR": 0, "MEAN_MOTION_DOT": -2.59e-06, "MEAN_MOTION_DDOT": 0}, "tle": {"line1": "1 39613U 14010B   25356.60183714 -.00000259  00000+0  00000+0 0  9994", "line2": "2 39613   0.0173 293.9079 0001447 347.7112 166.2991  1.00273838 42737"}}, "geometry": {"type": "Point", "coordinates": [-147.33665562794064, -0.0208828773437866]}}, {"type": "Feature", "properties": {"norad_id": 39773, "name": "EUTELSAT 3B", "group": "eutelsat", "lat": 0.08495184615125756, "lon": 75.91330826922638, "alt_km": 35801.74997211252, "timestamp": "2025-12-22T22:44:20.622395+00:00", "meta": {"OBJECT_NAME": "EUTELSAT 3B", "OBJECT_ID": "2014-030A", "EPOCH": "2025-12-22T08:02:37.548384", "MEAN_MOTION": 1.00274, "ECCENTRICITY": 0.00042468, "INCLINATION": 0.0624, "RA_OF_ASC_NODE": 343.584, "ARG_OF_PERICENTER": 247.7971, "MEAN_ANOMALY": 343.5213, "EPHEMERIS_TYPE": 0, "CLASSIFICATION_TYPE": "U", "NORAD_CAT_ID": 39773, "ELEMENT_SET_NO": 999, "REV_AT_EPOCH": 4229, "BSTAR": 0, "MEAN_MOTION_DOT": 4.2e-07, "MEAN_MOTION_DDOT": 0}, "tle": {"line1": "1 39773U 14030A   25356.33515681  .00000042  00000+0  00000+0 0  9994", "line2": "2 39773   0.0624 343.5840 0004246 247.7971 343.5213  1.00274000 42295"}}, "geometry": {"type": "Point", "coordinates": [75.91330826922638, 0.08495184615125756]}}, {"type": "Feature", "properties": {"norad_id": 40425, "name": "EUTELSAT 115 WEST B", "group": "eutelsat", "lat": 0.007031477445621673, "lon": -42.09421751191359, "alt_km": 35785.57021469328, "timestamp": "2025-12-22T22:44:20.622407+00:00", "meta": {"OBJECT_NAME": "EUTELSAT 115 WEST B", "OBJECT_ID": "2015-010B", "EPOCH": "2025-12-22T10:47:31.232256", "MEAN_MOTION": 1.00269855, "ECCENTRICITY": 2.522e-05, "INCLINATION": 0.0093, "RA_OF_ASC_NODE": 153.5517, "ARG_OF_PERICENTER": 151.4988, "MEAN_ANOMALY": 193.1685, "EPHEMERIS_TYPE": 0, "CLASSIFICATION_TYPE": "U", "NORAD_CAT_ID": 40425, "ELEMENT_SET_NO": 999, "REV_AT_EPOCH": 3962, "BSTAR": 0, "MEAN_MOTION_DOT": -3e-08, "MEAN_MOTION_DDOT": 0}, "tle": {"line1": "1 40425U 15010B   25356.44966704 -.00000003  00000+0  00000+0 0  9995", "line2": "2 40425   0.0093 153.5517 0000252 151.4988 193.1685  1.00269855 39620"}}, "geometry": {"type": "Point", "coordinates": [-42.09421751191359, 0.007031477445621673]}}, {"type": "Feature", "properties": {"norad_id": 40875, "name": "EUTELSAT 8 WEST B", "group": "eutelsat", "lat": 0.07790342606980406, "lon": 64.84629030252125, "alt_km": 35802.27202824421, "timestamp": "2025-12-22T22:44:20.622435+00:00", "meta": {"OBJECT_NAME": "EUTELSAT 8 WEST B", "OBJECT_ID": "2015-039B", "EPOCH": "2025-12-22T06:16:47.683200", "MEAN_MOTION": 1.00271154, "ECCENTRICITY": 0.00042547, "INCLINATION": 0.0635, "RA_OF_ASC_NODE": 2.3398, "ARG_OF_PERICENTER": 269.6982, "MEAN_ANOMALY": 265.2311, "EPHEMERIS_TYPE": 0, "CLASSIFICATION_TYPE": "U", "NORAD_CAT_ID": 40875, "ELEMENT_SET_NO": 999, "REV_AT_EPOCH": 3788, "BSTAR": 0, "MEAN_MOTION_DOT": -4.4e-07, "MEAN_MOTION_DDOT": 0}, "tle": {"line1": "1 40875U 15039B   25356.26166300 -.00000044  00000+0  00000+0 0  9994", "line2": "2 40875   0.0635   2.3398 0004254 269.6982 265.2311  1.00271154 37889"}}, "geometry": {"type": "Point", "coordinates": [64.84629030252125, 0.07790342606980406]}}, {"type": "Feature", "properties": {"norad_id": 41310, "name": "EUTELSAT 9B", "group": "eutelsat", "lat": 0.03128095380903348, "lon": 81.84233610736855, "alt_km": 35804.18071835184, "timestamp": "2025-12-22T22:44:20.622449+00:00", "meta": {"OBJECT_NAME": "EUTELSAT 9B", "OBJECT_ID": "2016-005A", "EPOCH": "2025-12-22T03:54:38.524896", "MEAN_MOTION": 1.00273048, "ECCENTRICITY": 0.0004511, "INCLINATION": 0.0657, "RA_OF_ASC_NODE": 72.7349, "ARG_OF_PERICENTER": 203.4472, "MEAN_ANOMALY": 242.4516, "EPHEMERIS_TYPE": 0, "CLASSIFICATION_TYPE": "U", "NORAD_CAT_ID": 41310, "ELEMENT_SET_NO": 999, "REV_AT_EPOCH": 3634, "BSTAR": 0, "MEAN_MOTION_DOT": 8.4e-07, "MEAN_MOTION_DDOT": 0}, "tle": {"line1": "1 41310U 16005A   25356.16294589  .00000084  00000+0  00000+0 0  9996", "line2": "2 41310   0.0657  72.7349 0004511 203.4472 242.4516  1.00273048 36349"}}, "geometry": {"type": "Point", "coordinates": [81.84233610736855, 0.03128095380903348]}}, {"type": "Feature", "properties": {"norad_id": 41382, "name": "EUTELSAT 65 WEST A", "group": "eutelsat", "lat": 0.02813158799396694, "lon": 7.661784662050028, "alt_km": 35786.269065116554, "timestamp": "2025-12-22T22:44:20.622461+00:00", "meta": {"OBJECT_NAME": "EUTELSAT 65 WEST A", "OBJECT_ID": "2016-014A", "EPOCH": "2025-12-22T11:08:34.740672", "MEAN_MOTION": 1.00273209, "ECCENTRICITY": 0.00021765, "INCLINATION": 0.051, "RA_OF_ASC_NODE": 337.2901, "ARG_OF_PERICENTER": 297.0272, "MEAN_ANOMALY": 278.9069, "EPHEMERIS_TYPE": 0, "CLASSIFICATION_TYPE": "U", "NORAD_CAT_ID": 41382, "ELEMENT_SET_NO": 999, "REV_AT_EPOCH": 3576, "BSTAR": 0, "MEAN_MOTION_DOT": -2.55e-06, "MEAN_MOTION_DDOT": 0}, "tle": {"line1": "1 41382U 16014A   25356.46429098 -.00000255  00000+0  00000+0 0  9994", "line2": "2 41382   0.0510 337.2901 0002176 297.0272 278.9069  1.00273209 35762"}}, "geometry": {"type": "Point", "coordinates": [7.661784662050028, 0.02813158799396694]}}, {"type": "Feature", "properties": {"norad_id": 41589, "name": "EUTELSAT 117 WEST B", "group": "eutelsat", "lat": 0.003878215573403247, "lon": -44.169895323865816, "alt_km": 35784.75711873344, "timestamp": "2025-12-22T22:44:20.622473+00:00", "meta": {"OBJECT_NAME": "EUTELSAT 117 WEST B", "OBJECT_ID": "2016-038B", "EPOCH": "2025-12-22T10:46:33.521376", "MEAN_MOTION": 1.00271447, "ECCENTRICITY": 3.908e-05, "INCLINATION": 0.0103, "RA_OF_ASC_NODE": 138.8686, "ARG_OF_PERICENTER": 145.0277, "MEAN_ANOMALY": 212.0013, "EPHEMERIS_TYPE": 0, "CLASSIFICATION_TYPE": "U", "NORAD_CAT_ID": 41589, "ELEMENT_SET_NO": 999, "REV_AT_EPOCH": 3489, "BSTAR": 0, "MEAN_MOTION_DOT": 1e-07, "MEAN_MOTION_DDOT": 0}, "tle": {"line1": "1 41589U 16038B   25356.44899909  .00000010  00000+0  00000+0 0  9997", "line2": "2 41589   0.0103 138.8686 0000390 145.0277 212.0013  1.00271447 34890"}}, "geometry": {"type": "Point", "coordinates": [-44.169895323865816, 0.003878215573403247]}}]}